STARLINK-5460           
1 55671U 23021AV  24113.35963396  .00001478  00000+0  13158-3 0  9997
2 55671  70.0008  95.1443 0002263 255.0336 105.0573 14.98334998 66476
STARLINK-5461           
1 55672U 23021AW  24113.33360155  .00017535  00000+0  13667-2 0  9995
2 55672  69.9999  94.2569 0004194 261.4258  98.6428 15.01227158 66493
STARLINK-5463           
1 55673U 23021AX  24113.37613398  .00002798  00000+0  24208-3 0  9999
2 55673  69.9988  94.8056 0003015 269.9479  90.1335 14.98344233 66480
STARLINK-5462           
1 55674U 23021AY  24113.36778653  .00002175  00000+0  18997-3 0  9992
2 55674  69.9987  94.7774 0003123 267.0864  92.9938 14.98343654 66488
STARLINK-5232           
1 55675U 23021AZ  24113.35945383 -.00001941  00000+0 -15495-3 0  9990
2 55675  70.0003  94.7537 0002448 256.3128 103.7758 14.98328262 66480
STARLINK-5300           
1 55676U 23021BA  24113.31750757  .00010335  00000+0  87201-3 0  9995
2 55676  70.0008  75.1320 0002977 261.2126  98.8696 14.98358708 66965
STARLINK-5324           
1 55677U 23021BB  24113.29663087 -.00002233  00000+0 -17928-3 0  9991
2 55677  70.0007  75.0573 0002369 255.6114 104.4783 14.98358104 66964
STARLINK-5314           
1 55678U 23021BC  24113.37196238  .00000869  00000+0  80581-4 0  9997
2 55678  69.9986  94.7918 0002965 266.8560  93.2260 14.98349719 66484
STARLINK-30050          
1 55695U 23026A   24113.43209635  .00029871  00000+0  20744-3 0  9992
2 55695  43.0055 268.9270 0003176 290.6096  69.4432 15.73825066 67231
STARLINK-30040          
1 55697U 23026C   24113.42703504  .00028567  00000+0  23021-3 0  9999
2 55697  43.0015 262.5736 0002187 278.5090  81.5529 15.70327839 67308
STARLINK-30055          
1 55699U 23026E   24113.45066247  .00024728  00000+0  19130-3 0  9991
2 55699  43.0035 274.5109 0003088 271.3768  88.6746 15.71371717 67172
STARLINK-30064          
1 55700U 23026F   24113.45048501 -.00000220  00000+0  17814-5 0  9998
2 55700  43.0053 274.5118 0002635 297.6397  62.4203 15.71322193 67173
STARLINK-30065          
1 55701U 23026G   24113.50001157  .00567509  00000+0  39293-2 0  9990
2 55701  43.0010 274.1771 0003471 288.8586  11.0410 15.72035084  6027
STARLINK-30051          
1 55704U 23026K   24112.91007480  .00048740  00000+0  37115-3 0  9995
2 55704  42.9987 310.7192 0001307 299.5568  60.5170 15.71470776 66545
STARLINK-30057          
1 55705U 23026L   24113.43351726 -.00037132  00000+0 -28244-3 0  9997
2 55705  43.0018 274.3852 0001717 333.6905  26.3875 15.71231758 67178
STARLINK-30060          
1 55707U 23026N   24113.45153981  .00005118  00000+0  42515-4 0  9999
2 55707  43.0035 274.5312 0001743 278.4162  81.6508 15.71321013 67173
STARLINK-30047          
1 55709U 23026Q   24113.43646884  .00012270  00000+0  96887-4 0  9996
2 55709  43.0019 274.3980 0001099 258.6786 101.3958 15.71351867 67171
STARLINK-30046          
1 55710U 23026R   24113.47695550  .00004860  00000+0  40523-4 0  9998
2 55710  43.0003 274.7151 0001880 282.5149  77.5509 15.71335145 67174
STARLINK-30037          
1 55712U 23026T   24113.47625220  .00019657  00000+0  15264-3 0  9990
2 55712  43.0042 268.4131 0002810 291.2053  68.8515 15.71408963 67249
STARLINK-30063          
1 55713U 23026U   24113.43379344  .00005517  00000+0  45517-4 0  9995
2 55713  43.0029 273.4957 0002111 296.7852  63.2799 15.71343939 67185
STARLINK-5592           
1 55741U 23028A   24113.43967509 -.00000995  00000+0 -75606-4 0  9993
2 55741  69.9999 174.8528 0003030 267.0470  93.0343 14.98331263 63430
STARLINK-5594           
1 55742U 23028B   24113.44385208  .00001667  00000+0  14744-3 0  9995
2 55742  70.0032 174.8724 0002263 247.9467 112.1452 14.98332458 63240
STARLINK-5602           
1 55743U 23028C   24113.44803101  .00009576  00000+0  80906-3 0  9993
2 55743  70.0028 174.8857 0002410 265.6585  94.4298 14.98341715 63241
STARLINK-5601           
1 55744U 23028D   24113.44402060 -.00001167  00000+0 -90015-4 0  9996
2 55744  70.0002 174.8685 0003211 270.0788  90.0003 14.98332578 63241
STARLINK-5565           
1 55745U 23028E   24113.45219542 -.00003261  00000+0 -26561-3 0  9990
2 55745  69.9997 174.8987 0003090 275.5944  84.4863 14.98328678 63243
STARLINK-5579           
1 55746U 23028F   24113.41464506  .00005136  00000+0  43798-3 0  9991
2 55746  70.0033 174.7682 0002536 268.5603  91.5265 14.98323719 63243
STARLINK-5539           
1 55747U 23028G   24113.43133093 -.00000569  00000+0 -39874-4 0  9996
2 55747  70.0017 174.8281 0002334 252.7195 107.3709 14.98331804 63242
STARLINK-5580           
1 55748U 23028H   24113.42715968  .00003797  00000+0  32584-3 0  9997
2 55748  70.0030 174.8126 0002884 240.2242 119.8631 14.98327813 63248
STARLINK-5560           
1 55749U 23028J   24113.41881865  .00028525  00000+0  23885-2 0  9996
2 55749  70.0024 174.7821 0003052 259.4569 100.6246 14.98332760 63242
STARLINK-5573           
1 55750U 23028K   24113.42298383 -.00002182  00000+0 -17516-3 0  9994
2 55750  70.0009 174.7974 0002884 257.2144 102.8693 14.98332634 63243
STARLINK-5577           
1 55751U 23028L   24113.43550313 -.00000626  00000+0 -44675-4 0  9998
2 55751  70.0016 174.8413 0002309 260.4578  99.6320 14.98333414 63247
STARLINK-5613           
1 55752U 23028M   24113.46469802 -.00002715  00000+0 -21979-3 0  9996
2 55752  70.0014 174.5396 0002305 264.6227  95.4669 14.98336068 63255
STARLINK-5617           
1 55753U 23028N   24113.41479633  .00012401  00000+0  10450-2 0  9997
2 55753  70.0029 174.7702 0002614 273.9535  86.1325 14.98339311 63242
STARLINK-5612           
1 55754U 23028P   24113.40629022  .00035730  00000+0  29813-2 0  9999
2 55754  70.0042 174.7399 0002062 277.3436  82.7489 14.98406338 63242
STARLINK-5619           
1 55755U 23028Q   24113.46068565  .00024435  00000+0  20463-2 0  9997
2 55755  70.0020 174.5182 0002791 273.7261  86.3578 14.98372351 63259
STARLINK-5614           
1 55756U 23028R   24113.45633375  .00001060  00000+0  96540-4 0  9994
2 55756  70.0029 174.5141 0002256 251.3844 108.7070 14.98354630 63255
STARLINK-5544           
1 55757U 23028S   24113.41045849  .00001733  00000+0  15299-3 0  9992
2 55757  70.0033 174.7536 0002487 275.1999  84.8876 14.98332197 63243
STARLINK-5072           
1 55758U 23028T   24113.40208479 -.00020548  00000+0 -17172-2 0  9990
2 55758  70.0027 174.7238 0002582 254.9750 105.1123 14.98378684 63245
STARLINK-5081           
1 55759U 23028U   24113.40188718 -.00000540  00000+0 -37483-4 0  9993
2 55759  69.9993 154.8883 0002908 265.8805  94.2021 14.98343201 63730
STARLINK-5532           
1 55760U 23028V   24113.45651609  .00001440  00000+0  12848-3 0  9999
2 55760  70.0031 174.5108 0002091 269.8820  90.2099 14.98325671 63250
STARLINK-5611           
1 55761U 23028W   24113.43127801  .00001058  00000+0  96496-4 0  9997
2 55761  70.0015 154.9468 0002648 253.4307 106.6561 14.98325775 63735
STARLINK-5603           
1 55762U 23028X   24113.41858791  .00001414  00000+0  12627-3 0  9994
2 55762  70.0004 154.9021 0002508 279.5639  80.5236 14.98318216 63732
STARLINK-5593           
1 55763U 23028Y   24113.46052153 -.00003118  00000+0 -25360-3 0  9991
2 55763  70.0007 174.5236 0002811 276.7642  83.3197 14.98338932 63253
STARLINK-5499           
1 55764U 23028Z   24113.42276156  .00000489  00000+0  48785-4 0  9992
2 55764  70.0009 154.9168 0002539 255.8401 104.2476 14.98330728 63731
STARLINK-5595           
1 55765U 23028AA  24113.42693861 -.00003076  00000+0 -25005-3 0  9995
2 55765  70.0010 154.9319 0002532 246.7011 113.3882 14.98339747 63733
STARLINK-5599           
1 55766U 23028AB  24113.40623024 -.00002042  00000+0 -16336-3 0  9997
2 55766  69.9992 154.8538 0002592 268.6204  91.4658 14.98330435 63737
STARLINK-5606           
1 55767U 23028AC  24113.43111308 -.00002250  00000+0 -18085-3 0  9992
2 55767  70.0003 154.9463 0002669 272.2345  87.8508 14.98327879 63735
STARLINK-5583           
1 55768U 23028AD  24113.41440497 -.00003349  00000+0 -27291-3 0  9994
2 55768  69.9987 154.8856 0002929 273.3786  86.7038 14.98341529 63733
STARLINK-5584           
1 55769U 23028AE  24113.41021767  .00000270  00000+0  30410-4 0  9996
2 55769  70.0004 154.8719 0002716 272.4574  87.6274 14.98346517 63738
STARLINK-5557           
1 55770U 23028AF  24113.40606568  .00017756  00000+0  14917-2 0  9994
2 55770  70.0014 154.8574 0002710 256.9183 103.1674 14.98341251 63735
STARLINK-5591           
1 55771U 23028AG  24113.46447791  .00000309  00000+0  33691-4 0  9990
2 55771  69.9996 154.6584 0002870 260.7485  99.3349 14.98328820 63749
STARLINK-5835           
1 55772U 23028AH  24113.45196159  .00001394  00000+0  12463-3 0  9997
2 55772  70.0002 154.6127 0003114 269.5899  90.4904 14.98316698 63741
STARLINK-5833           
1 55773U 23028AJ  24113.46464601 -.00001062  00000+0 -81205-4 0  9994
2 55773  70.0006 154.6595 0002599 271.3001  88.7860 14.98324974 63744
STARLINK-5812           
1 55774U 23028AK  24113.46030232 -.00002839  00000+0 -23016-3 0  9992
2 55774  70.0010 154.6451 0002370 253.0342 107.0558 14.98339362 63749
STARLINK-5809           
1 55775U 23028AL  24113.45613043 -.00002025  00000+0 -16201-3 0  9994
2 55775  70.0008 154.6314 0002700 244.5401 115.5479 14.98325983 63743
STARLINK-5810           
1 55776U 23028AM  24113.43525610 -.00006716  00000+0 -55538-3 0  9992
2 55776  70.0018 154.5584 0002198 246.0334 114.0595 14.98349556 63741
STARLINK-5814           
1 55777U 23028AN  24113.44776233  .00001999  00000+0  17519-3 0  9996
2 55777  70.0017 154.6038 0002199 249.9149 110.1774 14.98347337 63744
STARLINK-5816           
1 55778U 23028AP  24113.44360323 -.00000259  00000+0 -13942-4 0  9993
2 55778  70.0019 154.5877 0002144 241.9884 118.1058 14.98331379 63747
STARLINK-5817           
1 55779U 23028AQ  24113.41416473 -.00001631  00000+0 -12895-3 0  9999
2 55779  69.9990 134.6034 0003092 273.0569  87.0236 14.98327178 64235
